{
  "type": "FeatureCollection",
  "features": [
    {
      "type": "Feature",
      "properties": {
        "norad_id": 38857,
        "name": "GSAT0103 (GALILEO-FM3)",
        "group": "gnss",
        "lat": -54.617491116486505,
        "lon": 32.933319902830526,
        "alt_km": 23221.05928064332,
        "timestamp": "2025-12-06T22:38:42.971141+00:00",
        "meta_object_name": "GSAT0103 (GALILEO-FM3)",
        "meta_object_id": "2012-055A",
        "meta_epoch": "2025-12-05T21:38:47.654016",
        "meta_mean_motion": 1.70473243,
        "meta_eccentricity": 0.00024504,
        "meta_inclination": 55.6874,
        "meta_ra_of_asc_node": 106.8543,
        "meta_arg_of_pericenter": 267.6787,
        "meta_mean_anomaly": 92.2447,
        "meta_ephemeris_type": 0,
        "meta_classification_type": "U",
        "meta_norad_cat_id": 38857,
        "meta_element_set_no": 999,
        "meta_rev_at_epoch": 8171,
        "meta_bstar": 0,
        "meta_mean_motion_dot": 8e-08,
        "meta_mean_motion_ddot": 0,
        "tle_line1": "1 38857U 12055A   25339.90194044  .00000008  00000+0  00000+0 0  9993",
        "tle_line2": "2 38857  55.6874 106.8543 0002450 267.6787  92.2447  1.70473243 81715"
      },
      "geometry": {
        "type": "Point",
        "coordinates": [
          32.933319902830526,
          -54.617491116486505
        ]
      }
    },
    {
      "type": "Feature",
      "properties": {
        "norad_id": 38953,
        "name": "BEIDOU-2 G6 (C02)",
        "group": "gnss",
        "lat": 3.5516044106751457,
        "lon": 139.69919036187596,
        "alt_km": 35808.32593451857,
        "timestamp": "2025-12-06T22:38:42.971153+00:00",
        "meta_object_name": "BEIDOU-2 G6 (C02)",
        "meta_object_id": "2012-059A",
        "meta_epoch": "2025-12-06T08:55:39.306144",
        "meta_mean_motion": 1.00270289,
        "meta_eccentricity": 0.00075388,
        "meta_inclination": 3.9323,
        "meta_ra_of_asc_node": 75.5656,
        "meta_arg_of_pericenter": 289.2939,
        "meta_mean_anomaly": 288.5101,
        "meta_ephemeris_type": 0,
        "meta_classification_type": "U",
        "meta_norad_cat_id": 38953,
        "meta_element_set_no": 999,
        "meta_rev_at_epoch": 4797,
        "meta_bstar": 0,
        "meta_mean_motion_dot": -1.7e-06,
        "meta_mean_motion_ddot": 0,
        "tle_line1": "1 38953U 12059A   25340.37198271 -.00000170  00000+0  00000+0 0  9994",
        "tle_line2": "2 38953   3.9323  75.5656 0007538 289.2939 288.5101  1.00270289 47970"
      },
      "geometry": {
        "type": "Point",
        "coordinates": [
          139.69919036187596,
          3.5516044106751457
        ]
      }
    },
    {
      "type": "Feature",
      "properties": {
        "norad_id": 38977,
        "name": "LUCH 5B (SDCM/PRN 125)",
        "group": "gnss",
        "lat": -2.14094023298375,
        "lon": 39.51932234403106,
        "alt_km": 35815.48161069728,
        "timestamp": "2025-12-06T22:38:42.971165+00:00",
        "meta_object_name": "LUCH 5B (SDCM/PRN 125)",
        "meta_object_id": "2012-061A",
        "meta_epoch": "2025-12-05T23:12:38.603808",
        "meta_mean_motion": 1.00272178,
        "meta_eccentricity": 0.00074333,
        "meta_inclination": 10.0624,
        "meta_ra_of_asc_node": 51.767,
        "meta_arg_of_pericenter": 189.4366,
        "meta_mean_anomaly": 165.6208,
        "meta_ephemeris_type": 0,
        "meta_classification_type": "U",
        "meta_norad_cat_id": 38977,
        "meta_element_set_no": 999,
        "meta_rev_at_epoch": 4766,
        "meta_bstar": 0,
        "meta_mean_motion_dot": -1.35e-06,
        "meta_mean_motion_ddot": 0,
        "tle_line1": "1 38977U 12061A   25339.96711347 -.00000135  00000+0  00000+0 0  9992",
        "tle_line2": "2 38977  10.0624  51.7670 0007433 189.4366 165.6208  1.00272178 47668"
      },
      "geometry": {
        "type": "Point",
        "coordinates": [
          39.51932234403106,
          -2.14094023298375
        ]
      }
    },
    {
      "type": "Feature",
      "properties": {
        "norad_id": 39155,
        "name": "COSMOS 2485 (747)",
        "group": "gnss",
        "lat": -27.286099054923206,
        "lon": 66.36439278724599,
        "alt_km": 19144.961782877595,
        "timestamp": "2025-12-06T22:38:42.971177+00:00",
        "meta_object_name": "COSMOS 2485 (747)",
        "meta_object_id": "2013-019A",
        "meta_epoch": "2025-12-05T02:32:45.729312",
        "meta_mean_motion": 2.13102875,
        "meta_eccentricity": 0.00246247,
        "meta_inclination": 65.3094,
        "meta_ra_of_asc_node": 80.124,
        "meta_arg_of_pericenter": 229.2984,
        "meta_mean_anomaly": 130.4888,
        "meta_ephemeris_type": 0,
        "meta_classification_type": "U",
        "meta_norad_cat_id": 39155,
        "meta_element_set_no": 999,
        "meta_rev_at_epoch": 9814,
        "meta_bstar": 0,
        "meta_mean_motion_dot": -2.1e-07,
        "meta_mean_motion_ddot": 0,
        "tle_line1": "1 39155U 13019A   25339.10608483 -.00000021  00000+0  00000+0 0  9991",
        "tle_line2": "2 39155  65.3094  80.1240 0024624 229.2984 130.4888  2.13102875 98144"
      },
      "geometry": {
        "type": "Point",
        "coordinates": [
          66.36439278724599,
          -27.286099054923206
        ]
      }
    },
    {
      "type": "Feature",
      "properties": {
        "norad_id": 39166,
        "name": "GPS BIIF-4  (PRN 27)",
        "group": "gnss",
        "lat": 19.932732214478424,
        "lon": 81.8958592951887,
        "alt_km": 20280.154815321475,
        "timestamp": "2025-12-06T22:38:42.971192+00:00",
        "meta_object_name": "GPS BIIF-4  (PRN 27)",
        "meta_object_id": "2013-023A",
        "meta_epoch": "2025-12-06T05:36:29.430144",
        "meta_mean_motion": 2.00565051,
        "meta_eccentricity": 0.01374987,
        "meta_inclination": 54.6578,
        "meta_ra_of_asc_node": 276.8328,
        "meta_arg_of_pericenter": 48.5421,
        "meta_mean_anomaly": 312.6375,
        "meta_ephemeris_type": 0,
        "meta_classification_type": "U",
        "meta_norad_cat_id": 39166,
        "meta_element_set_no": 999,
        "meta_rev_at_epoch": 9201,
        "meta_bstar": 0,
        "meta_mean_motion_dot": -3.2e-07,
        "meta_mean_motion_ddot": 0,
        "tle_line1": "1 39166U 13023A   25340.23367396 -.00000032  00000+0  00000+0 0  9991",
        "tle_line2": "2 39166  54.6578 276.8328 0137498  48.5421 312.6375  2.00565051 92017"
      },
      "geometry": {
        "type": "Point",
        "coordinates": [
          81.8958592951887,
          19.932732214478424
        ]
      }
    },
    {
      "type": "Feature",
      "properties": {
        "norad_id": 39199,
        "name": "IRNSS-1A",
        "group": "gnss",
        "lat": 23.744552184993648,
        "lon": 105.00040252870974,
        "alt_km": 35852.5784482486,
        "timestamp": "2025-12-06T22:38:42.971206+00:00",
        "meta_object_name": "IRNSS-1A",
        "meta_object_id": "2013-034A",
        "meta_epoch": "2025-12-02T19:49:26.431104",
        "meta_mean_motion": 1.00279053,
        "meta_eccentricity": 0.00216608,
        "meta_inclination": 35.2852,
        "meta_ra_of_asc_node": 66.6964,
        "meta_arg_of_pericenter": 185.4059,
        "meta_mean_anomaly": 172.3398,
        "meta_ephemeris_type": 0,
        "meta_classification_type": "U",
        "meta_norad_cat_id": 39199,
        "meta_element_set_no": 999,
        "meta_rev_at_epoch": 4539,
        "meta_bstar": 0,
        "meta_mean_motion_dot": 6.5e-07,
        "meta_mean_motion_ddot": 0,
        "tle_line1": "1 39199U 13034A   25336.82600036  .00000065  00000+0  00000+0 0  9995",
        "tle_line2": "2 39199  35.2852  66.6964 0021660 185.4059 172.3398  1.00279053 45393"
      },
      "geometry": {
        "type": "Point",
        "coordinates": [
          105.00040252870974,
          23.744552184993648
        ]
      }
    },
    {
      "type": "Feature",
      "properties": {
        "norad_id": 39533,
        "name": "GPS BIIF-5  (PRN 30)",
        "group": "gnss",
        "lat": 19.718493401584087,
        "lon": -38.16927765895738,
        "alt_km": 20110.07356298701,
        "timestamp": "2025-12-06T22:38:42.971218+00:00",
        "meta_object_name": "GPS BIIF-5  (PRN 30)",
        "meta_object_id": "2014-008A",
        "meta_epoch": "2025-12-05T17:30:27.207648",
        "meta_mean_motion": 2.00573953,
        "meta_eccentricity": 0.00790348,
        "meta_inclination": 53.63,
        "meta_ra_of_asc_node": 157.2106,
        "meta_arg_of_pericenter": 226.4047,
        "meta_mean_anomaly": 132.9556,
        "meta_ephemeris_type": 0,
        "meta_classification_type": "U",
        "meta_norad_cat_id": 39533,
        "meta_element_set_no": 999,
        "meta_rev_at_epoch": 8580,
        "meta_bstar": 0,
        "meta_mean_motion_dot": 6.8e-07,
        "meta_mean_motion_ddot": 0,
        "tle_line1": "1 39533U 14008A   25339.72948157  .00000068  00000+0  00000+0 0  9993",
        "tle_line2": "2 39533  53.6300 157.2106 0079034 226.4047 132.9556  2.00573953 85808"
      },
      "geometry": {
        "type": "Point",
        "coordinates": [
          -38.16927765895738,
          19.718493401584087
        ]
      }
    }
  ]
}